GPS BIIA-23 (PRN 18)    
1 22877U 93068A   19142.30055059 -.00000064  00000-0  00000+0 0  9996
2 22877  54.6679  69.6132 0151347  79.5180  19.1654  2.00560471187358
GPS BIIR-2  (PRN 13)    
1 24876U 97035A   19142.05939858  .00000018  00000-0  00000+0 0  9993
2 24876  55.4596 199.4894 0033126  73.2529 287.1907  2.00564660159941
GPS BIIR-3  (PRN 11)    
1 25933U 99055A   19142.31911113 -.00000095  00000-0  00000+0 0  9991
2 25933  52.1093  46.9524 0164265 108.3643   5.9900  2.00559668143768
GPS BIIR-4  (PRN 20)    
1 26360U 00025A   19142.23119253  .00000010  00000-0  00000+0 0  9997
2 26360  53.3281 125.5201 0042444 137.5126 320.1074  2.00561428139457
GPS BIIR-5  (PRN 28)    
1 26407U 00040A   19141.67838115 -.00000067  00000-0  00000+0 0  9991
2 26407  56.2774 317.6291 0192410 275.9546 115.9973  2.00560611138127
GPS BIIR-6  (PRN 14)    
1 26605U 00071A   19142.36561656  .00000016  00000-0  00000+0 0  9998
2 26605  55.0341 196.9353 0108411 249.3252 190.7684  2.00560126135733
GPS BIIR-8  (PRN 16)    
1 27663U 03005A   19142.46694598 -.00000063  00000-0  00000+0 0  9999
2 27663  56.3374 317.3711 0106877  32.0062 329.9037  2.00575433119507
GPS BIIR-9  (PRN 21)    
1 27704U 03010A   19142.33295681 -.00000065  00000-0  00000+0 0  9999
2 27704  54.3429  69.0893 0248673 277.3186 312.0199  2.00556308118305
GPS BIIR-10 (PRN 22)    
1 28129U 03058A   19142.25153160  .00000012  00000-0  00000+0 0  9990
2 28129  53.1400 128.3088 0074601 282.5059  76.6410  2.00548369112999
GPS BIIR-11 (PRN 19)    
1 28190U 04009A   19142.13764718 -.00000102  00000-0  00000+0 0  9990
2 28190  56.2632  18.1630 0093732  80.2762 197.4720  2.00568613111176
GPS BIIR-12 (PRN 23)    
1 28361U 04023A   19142.42764818  .00000018  00000-0  00000+0 0  9994
2 28361  54.0484 191.3271 0134035 231.2168 169.6953  2.00573835109260
GPS BIIR-13 (PRN 02)    
1 28474U 04045A   19142.20017943 -.00000066  00000-0  00000+0 0  9993
2 28474  54.7010  68.8366 0191411 260.4361 337.3101  2.00559177106618
GPS BIIRM-1 (PRN 17)    
1 28874U 05038A   19141.47452765 -.00000101  00000-0  00000+0 0  9993
2 28874  56.3873  15.5382 0130602 262.1374 276.9834  2.00555978100005
GPS BIIRM-2 (PRN 31)    
1 29486U 06042A   19142.34239478 -.00000020  00000-0  00000+0 0  9990
2 29486  55.0096 254.0759 0091985 358.8716   9.6774  2.00570402 92743
GPS BIIRM-3 (PRN 12)    
1 29601U 06052A   19141.28058475 -.00000068  00000-0  00000+0 0  9990
2 29601  56.3181 316.3341 0074413  61.1687 299.5634  2.00567603 91639
GPS BIIRM-4 (PRN 15)    
1 32260U 07047A   19141.59182331  .00000025  00000-0  00000+0 0  9995
2 32260  53.1717 187.0741 0111449  43.5427 317.4098  2.00561308 85013
GPS BIIRM-5 (PRN 29)    
1 32384U 07062A   19142.34261670 -.00000102  00000-0  00000+0 0  9994
2 32384  56.4711  16.1421 0008423  98.2007 219.8871  2.00555034 83768
GPS BIIRM-6 (PRN 07)    
1 32711U 08012A   19141.49782412 -.00000018  00000-0  00000+0 0  9997
2 32711  54.7495 253.3060 0128659 219.5282 139.5413  2.00554436 81935
GPS BIIRM-8 (PRN 05)    
1 35752U 09043A   19142.33723990  .00000018  00000-0  00000+0 0  9999
2 35752  54.4226 130.9464 0054934  38.7327 232.1370  2.00561392 71531
GPS BIIF-1  (PRN 25)    
1 36585U 10022A   19141.58119061 -.00000065  00000-0  00000+0 0  9990
2 36585  55.5980 312.6415 0082629  50.3845 137.1067  2.00559423 65764
GPS BIIF-2  (PRN 01)    
1 37753U 11036A   19142.44160931 -.00000057  00000-0  00000+0 0  9993
2 37753  55.8987  72.7589 0086896  39.2365 136.7654  2.00566246 57478
GPS BIIF-3  (PRN 24)    
1 38833U 12053A   19142.18506872 -.00000019  00000-0  00000+0 0  9990
2 38833  53.7838 249.5051 0081730  33.4398 327.0951  2.00558229 48525
GPS BIIF-4  (PRN 27)    
1 39166U 13023A   19142.04464016 -.00000102  00000-0  00000+0 0  9999
2 39166  56.0702  12.2994 0069980  26.3490 334.0517  2.00567782 44064
GPS BIIF-5  (PRN 30)    
1 39533U 14008A   19141.53970416 -.00000021  00000-0  00000-0 0  9991
2 39533  53.9162 254.9237 0040725 193.0631 166.8422  2.00573149 37880
GPS BIIF-6  (PRN 06)    
1 39741U 14026A   19141.82581074 -.00000060  00000-0  00000+0 0  9994
2 39741  55.8781  72.3089 0017638 294.4323  65.3690  2.00574236 36705
GPS BIIF-7  (PRN 09)    
1 40105U 14045A   19142.41593770  .00000018  00000-0  00000+0 0  9995
2 40105  54.5748 191.6178 0010034 103.1789 257.0096  2.00563315 35164
GPS BIIF-8  (PRN 03)    
1 40294U 14068A   19142.28140369  .00000021  00000-0  00000+0 0  9990
2 40294  55.1745 132.4826 0020519  28.1375 331.9596  2.00550440 33380
GPS BIIF-9  (PRN 26)    
1 40534U 15013A   19142.42416952 -.00000061  00000-0  00000+0 0  9993
2 40534  54.5256 310.9764 0037042   6.4244 353.6056  2.00571367 30452
GPS BIIF-10  (PRN 08)   
1 40730U 15033A   19142.08504585 -.00000103  00000-0  00000+0 0  9992
2 40730  55.5953  11.6497 0044685 343.9063  15.9973  2.00556145 28205
GPS BIIF-11  (PRN 10)   
1 41019U 15062A   19142.13330440  .00000020  00000-0  00000+0 0  9995
2 41019  55.1758 132.3032 0046623 208.2812 151.4520  2.00564746 26028
GPS BIIF-12  (PRN 32)   
1 41328U 16007A   19141.73031487  .00000024  00000-0  00000+0 0  9996
2 41328  54.8189 192.0275 0032012 219.8892 139.9541  2.00573252 24079
